[{"OBJECT_NAME":"STARLINK-30266","OBJECT_ID":"2023-115J","EPOCH":"2026-03-08T06:02:19.174848","MEAN_MOTION":15.27319514,"ECCENTRICITY":0.00017639,"INCLINATION":43.0018,"RA_OF_ASC_NODE":9.5251,"ARG_OF_PERICENTER":256.7731,"MEAN_ANOMALY":103.2924,"EPHEMERIS_TYPE":0,"CLASSIFICATION_TYPE":"U","NORAD_CAT_ID":57529,"ELEMENT_SET_NO":999,"REV_AT_EPOCH":14213,"BSTAR":0.0045460202,"MEAN_MOTION_DOT":0.00125986,"MEAN_MOTION_DDOT":0},{"OBJECT_NAME":"FLOCK 4G-6","OBJECT_ID":"2025-009BD","EPOCH":"2026-03-09T17:03:16.973568","MEAN_MOTION":15.27432125,"ECCENTRICITY":0.00023795,"INCLINATION":97.398,"RA_OF_ASC_NODE":150.7943,"ARG_OF_PERICENTER":348.2637,"MEAN_ANOMALY":11.8546,"EPHEMERIS_TYPE":0,"CLASSIFICATION_TYPE":"U","NORAD_CAT_ID":62660,"ELEMENT_SET_NO":999,"REV_AT_EPOCH":12130,"BSTAR":0.00045909501,"MEAN_MOTION_DOT":0.00012261,"MEAN_MOTION_DDOT":0}]
