STARLINK-30266          
1 57529U 23115J   26067.25161082  .00125986  00000+0  45460-2 0  9997
2 57529  43.0018   9.5251 0001763 256.7731 103.2924 15.27319514142136
FLOCK 4G-6              
1 62660U 25009BD  26068.71061311  .00012261  00000+0  45910-3 0  9991
2 62660  97.3980 150.7943 0002380 348.2637  11.8546 15.27432125121307
